<?xml version="1.0" encoding="UTF-8"?>
<gpx version="1.1" creator="Example GPX" xmlns="http://www.topografix.com/GPX/1/1">
  <metadata>
    <name>Evening Ride</name>
    <time>2024-01-16T18:00:00Z</time>
  </metadata>
  <trk>
    <name>Evening Ride</name>
    <type>Ride</type>
    <trkseg>
      <trkpt lat="40.7128" lon="-74.0060">
        <ele>5</ele>
        <time>2024-01-16T18:00:00Z</time>
      </trkpt>
      <trkpt lat="40.7138" lon="-74.0050">
        <ele>6</ele>
        <time>2024-01-16T18:02:00Z</time>
      </trkpt>
      <trkpt lat="40.7148" lon="-74.0040">
        <ele>7</ele>
        <time>2024-01-16T18:04:00Z</time>
      </trkpt>
      <trkpt lat="40.7158" lon="-74.0030">
        <ele>8</ele>
        <time>2024-01-16T18:06:00Z</time>
      </trkpt>
      <trkpt lat="40.7168" lon="-74.0020">
        <ele>9</ele>
        <time>2024-01-16T18:08:00Z</time>
      </trkpt>
    </trkseg>
  </trk>
</gpx>
