<?xml version="1.0" encoding="UTF-8"?>
<gpx version="1.1" creator="Example GPX" xmlns="http://www.topografix.com/GPX/1/1">
  <metadata>
    <name>Morning Run</name>
    <time>2024-01-15T08:30:00Z</time>
  </metadata>
  <trk>
    <name>Morning Run</name>
    <type>Run</type>
    <trkseg>
      <trkpt lat="37.7749" lon="-122.4194">
        <ele>10</ele>
        <time>2024-01-15T08:30:00Z</time>
      </trkpt>
      <trkpt lat="37.7759" lon="-122.4184">
        <ele>12</ele>
        <time>2024-01-15T08:32:00Z</time>
      </trkpt>
      <trkpt lat="37.7769" lon="-122.4174">
        <ele>15</ele>
        <time>2024-01-15T08:34:00Z</time>
      </trkpt>
      <trkpt lat="37.7779" lon="-122.4164">
        <ele>18</ele>
        <time>2024-01-15T08:36:00Z</time>
      </trkpt>
      <trkpt lat="37.7789" lon="-122.4154">
        <ele>20</ele>
        <time>2024-01-15T08:38:00Z</time>
      </trkpt>
      <trkpt lat="37.7799" lon="-122.4144">
        <ele>22</ele>
        <time>2024-01-15T08:40:00Z</time>
      </trkpt>
      <trkpt lat="37.7809" lon="-122.4154">
        <ele>25</ele>
        <time>2024-01-15T08:42:00Z</time>
      </trkpt>
      <trkpt lat="37.7819" lon="-122.4164">
        <ele>28</ele>
        <time>2024-01-15T08:44:00Z</time>
      </trkpt>
      <trkpt lat="37.7829" lon="-122.4174">
        <ele>30</ele>
        <time>2024-01-15T08:46:00Z</time>
      </trkpt>
      <trkpt lat="37.7839" lon="-122.4184">
        <ele>32</ele>
        <time>2024-01-15T08:48:00Z</time>
      </trkpt>
      <trkpt lat="37.7849" lon="-122.4194">
        <ele>35</ele>
        <time>2024-01-15T08:50:00Z</time>
      </trkpt>
    </trkseg>
  </trk>
</gpx>
